{"type": "FeatureCollection", "features": [ {"type": "Feature", "properties": {"norad_id": 66948, "name": "STARLINK-36116", "group": "last-30-days", "lat": 36.78083914865353, "lon": 45.98172595614503, "alt_km": 334.9373869858928, "timestamp": "2025-12-20T09:36:00.354858+00:00", "meta": {"OBJECT_NAME": "STARLINK-36116", "OBJECT_ID": "2025-286Z", "EPOCH": "2025-12-20T04:00:00.999072", "MEAN_MOTION": 15.77400492, "ECCENTRICITY": 0.0001111, "INCLINATION": 53.1554, "RA_OF_ASC_NODE": 13.0493, "ARG_OF_PERICENTER": 92.6689, "MEAN_ANOMALY": 70.4513, "EPHEMERIS_TYPE": 0, "CLASSIFICATION_TYPE": "U", "NORAD_CAT_ID": 66948, "ELEMENT_SET_NO": 999, "REV_AT_EPOCH": 318, "BSTAR": -0.010543, "MEAN_MOTION_DOT": -0.01557341, "MEAN_MOTION_DDOT": 0}, "tle": {"line1": "1 66948U 25286Z   25354.16667823 -.01557341  00000+0 -10543-1 0  9995", "line2": "2 66948  53.1554  13.0493 0001111  92.6689  70.4513 15.77400492  3183"}}, "geometry": {"type": "Point", "coordinates": [45.98172595614503, 36.78083914865353]}}, {"type": "Feature", "properties": {"norad_id": 66949, "name": "STARLINK-36096", "group": "last-30-days", "lat": 39.37591736613998, "lon": 49.85966937414854, "alt_km": 334.5919801714672, "timestamp": "2025-12-20T09:36:00.354870+00:00", "meta": {"OBJECT_NAME": "STARLINK-36096", "OBJECT_ID": "2025-286AA", "EPOCH": "2025-12-20T04:00:00.999072", "MEAN_MOTION": 15.77358097, "ECCENTRICITY": 0.0001179, "INCLINATION": 53.1556, "RA_OF_ASC_NODE": 13.0411, "ARG_OF_PERICENTER": 90.9353, "MEAN_ANOMALY": 76.2299, "EPHEMERIS_TYPE": 0, "CLASSIFICATION_TYPE": "U", "NORAD_CAT_ID": 66949, "ELEMENT_SET_NO": 999, "REV_AT_EPOCH": 318, "BSTAR": -0.0107, "MEAN_MOTION_DOT": -0.01574963, "MEAN_MOTION_DDOT": 0}, "tle": {"line1": "1 66949U 25286AA  25354.16667823 -.01574963  00000+0 -10700-1 0  9990", "line2": "2 66949  53.1556  13.0411 0001179  90.9353  76.2299 15.77358097  3187"}}, "geometry": {"type": "Point", "coordinates": [49.85966937414854, 39.37591736613998]}}, {"type": "Feature", "properties": {"norad_id": 66950, "name": "STARLINK-36111", "group": "last-30-days", "lat": 41.86276119215153, "lon": 54.084741935073, "alt_km": 334.1878824161249, "timestamp": "2025-12-20T09:36:00.354880+00:00", "meta": {"OBJECT_NAME": "STARLINK-36111", "OBJECT_ID": "2025-286AB", "EPOCH": "2025-12-20T04:00:00.999072", "MEAN_MOTION": 15.77287109, "ECCENTRICITY": 0.0001422, "INCLINATION": 53.1557, "RA_OF_ASC_NODE": 13.032, "ARG_OF_PERICENTER": 83.6383, "MEAN_ANOMALY": 87.6449, "EPHEMERIS_TYPE": 0, "CLASSIFICATION_TYPE": "U", "NORAD_CAT_ID": 66950, "ELEMENT_SET_NO": 999, "REV_AT_EPOCH": 318, "BSTAR": -0.010795, "MEAN_MOTION_DOT": -0.01582948, "MEAN_MOTION_DDOT": 0}, "tle": {"line1": "1 66950U 25286AB  25354.16667823 -.01582948  00000+0 -10795-1 0  9998", "line2": "2 66950  53.1557  13.0320 0001422  83.6383  87.6449 15.77287109  3180"}}, "geometry": {"type": "Point", "coordinates": [54.084741935073, 41.86276119215153]}}, {"type": "Feature", "properties": {"norad_id": 66951, "name": "STARLINK-35999", "group": "last-30-days", "lat": 43.062409960725184, "lon": 56.35400447064755, "alt_km": 334.255254973491, "timestamp": "2025-12-20T09:36:00.354891+00:00", "meta": {"OBJECT_NAME": "STARLINK-35999", "OBJECT_ID": "2025-286AC", "EPOCH": "2025-12-20T04:00:00.999072", "MEAN_MOTION": 15.77243088, "ECCENTRICITY": 0.0001251, "INCLINATION": 53.1557, "RA_OF_ASC_NODE": 13.0276, "ARG_OF_PERICENTER": 87.6073, "MEAN_ANOMALY": 85.773, "EPHEMERIS_TYPE": 0, "CLASSIFICATION_TYPE": "U", "NORAD_CAT_ID": 66951, "ELEMENT_SET_NO": 999, "REV_AT_EPOCH": 318, "BSTAR": -0.010867, "MEAN_MOTION_DOT": -0.01589224, "MEAN_MOTION_DDOT": 0}, "tle": {"line1": "1 66951U 25286AC  25354.16667823 -.01589224  00000+0 -10867-1 0  9993", "line2": "2 66951  53.1557  13.0276 0001251  87.6073  85.7730 15.77243088  3181"}}, "geometry": {"type": "Point", "coordinates": [56.35400447064755, 43.062409960725184]}}, {"type": "Feature", "properties": {"norad_id": 66952, "name": "STARLINK-36122", "group": "last-30-days", "lat": 40.64460887513769, "lon": 51.94266490469917, "alt_km": 334.3650217826398, "timestamp": "2025-12-20T09:36:00.354901+00:00", "meta": {"OBJECT_NAME": "STARLINK-36122", "OBJECT_ID": "2025-286AD", "EPOCH": "2025-12-20T04:00:00.999072", "MEAN_MOTION": 15.77316264, "ECCENTRICITY": 0.0001285, "INCLINATION": 53.1557, "RA_OF_ASC_NODE": 13.0364, "ARG_OF_PERICENTER": 81.9142, "MEAN_ANOMALY": 87.3228, "EPHEMERIS_TYPE": 0, "CLASSIFICATION_TYPE": "U", "NORAD_CAT_ID": 66952, "ELEMENT_SET_NO": 999, "REV_AT_EPOCH": 318, "BSTAR": -0.010713, "MEAN_MOTION_DOT": -0.01574109, "MEAN_MOTION_DDOT": 0}, "tle": {"line1": "1 66952U 25286AD  25354.16667823 -.01574109  00000+0 -10713-1 0  9990", "line2": "2 66952  53.1557  13.0364 0001285  81.9142  87.3228 15.77316264  3188"}}, "geometry": {"type": "Point", "coordinates": [51.94266490469917, 40.64460887513769]}}, {"type": "Feature", "properties": {"norad_id": 66953, "name": "HULIANWANG DIGUI-114", "group": "last-30-days", "lat": 81.66039959082401, "lon": 138.6628897943338, "alt_km": 1001.0305205428967, "timestamp": "2025-12-20T09:36:00.354913+00:00", "meta": {"OBJECT_NAME": "HULIANWANG DIGUI-114", "OBJECT_ID": "2025-287A", "EPOCH": "2025-12-18T14:58:33.375360", "MEAN_MOTION": 13.67416524, "ECCENTRICITY": 0.00087038, "INCLINATION": 86.4968, "RA_OF_ASC_NODE": 344.0089, "ARG_OF_PERICENTER": 188.5983, "MEAN_ANOMALY": 171.5028, "EPHEMERIS_TYPE": 0, "CLASSIFICATION_TYPE": "U", "NORAD_CAT_ID": 66953, "ELEMENT_SET_NO": 999, "REV_AT_EPOCH": 133, "BSTAR": 1.0869035e-05, "MEAN_MOTION_DOT": 2.6e-07, "MEAN_MOTION_DDOT": 0}, "tle": {"line1": "1 66953U 25287A   25352.62399740  .00000026  00000+0  10869-4 0  9995", "line2": "2 66953  86.4968 344.0089 0008703 188.5983 171.5028 13.67416524  1330"}}, "geometry": {"type": "Point", "coordinates": [138.6628897943338, 81.66039959082401]}}, {"type": "Feature", "properties": {"norad_id": 66954, "name": "HULIANWANG DIGUI-115", "group": "last-30-days", "lat": 77.55135100991953, "lon": 147.26237496799843, "alt_km": 1000.1083764716104, "timestamp": "2025-12-20T09:36:00.354923+00:00", "meta": {"OBJECT_NAME": "HULIANWANG DIGUI-115", "OBJECT_ID": "2025-287B", "EPOCH": "2025-12-18T14:57:30.566880", "MEAN_MOTION": 13.67541232, "ECCENTRICITY": 0.00089471, "INCLINATION": 86.4978, "RA_OF_ASC_NODE": 344.0137, "ARG_OF_PERICENTER": 187.4507, "MEAN_ANOMALY": 172.652, "EPHEMERIS_TYPE": 0, "CLASSIFICATION_TYPE": "U", "NORAD_CAT_ID": 66954, "ELEMENT_SET_NO": 999, "REV_AT_EPOCH": 133, "BSTAR": 1.0944943e-05, "MEAN_MOTION_DOT": 2.6e-07, "MEAN_MOTION_DDOT": 0}, "tle": {"line1": "1 66954U 25287B   25352.62327045  .00000026  00000+0  10945-4 0  9990", "line2": "2 66954  86.4978 344.0137 0008947 187.4507 172.6520 13.67541232  1330"}}, "geometry": {"type": "Point", "coordinates": [147.26237496799843, 77.55135100991953]}}, {"type": "Feature", "properties": {"norad_id": 66955, "name": "HULIANWANG DIGUI-116", "group": "last-30-days", "lat": 72.98913001230102, "lon": 151.78309444347894, "alt_km": 998.8417820271961, "timestamp": "2025-12-20T09:36:00.354946+00:00", "meta": {"OBJECT_NAME": "HULIANWANG DIGUI-116", "OBJECT_ID": "2025-287C", "EPOCH": "2025-12-18T14:56:21.725088", "MEAN_MOTION": 13.67658665, "ECCENTRICITY": 0.00085044, "INCLINATION": 86.4902, "RA_OF_ASC_NODE": 344.003, "ARG_OF_PERICENTER": 181.1085, "MEAN_ANOMALY": 179.0056, "EPHEMERIS_TYPE": 0, "CLASSIFICATION_TYPE": "U", "NORAD_CAT_ID": 66955, "ELEMENT_SET_NO": 999, "REV_AT_EPOCH": 133, "BSTAR": 0.00014472334, "MEAN_MOTION_DOT": 1.39e-06, "MEAN_MOTION_DDOT": 0}, "tle": {"line1": "1 66955U 25287C   25352.62247367  .00000139  00000+0  14472-3 0  9992", "line2": "2 66955  86.4902 344.0030 0008504 181.1085 179.0056 13.67658665  1335"}}, "geometry": {"type": "Point", "coordinates": [151.78309444347894, 72.98913001230102]}}, {"type": "Feature", "properties": {"norad_id": 66956, "name": "HULIANWANG DIGUI-117", "group": "last-30-days", "lat": 68.36321497943173, "lon": 154.48298771160864, "alt_km": 998.1651584158781, "timestamp": "2025-12-20T09:36:00.354976+00:00", "meta": {"OBJECT_NAME": "HULIANWANG DIGUI-117", "OBJECT_ID": "2025-287D", "EPOCH": "2025-12-18T14:55:12.079776", "MEAN_MOTION": 13.67770338, "ECCENTRICITY": 0.00076767, "INCLINATION": 86.4971, "RA_OF_ASC_NODE": 344.0126, "ARG_OF_PERICENTER": 176.3616, "MEAN_ANOMALY": 183.76, "EPHEMERIS_TYPE": 0, "CLASSIFICATION_TYPE": "U", "NORAD_CAT_ID": 66956, "ELEMENT_SET_NO": 999, "REV_AT_EPOCH": 133, "BSTAR": 1.0922436e-05, "MEAN_MOTION_DOT": 2.6e-07, "MEAN_MOTION_DDOT": 0}, "tle": {"line1": "1 66956U 25287D   25352.62166759  .00000026  00000+0  10922-4 0  9990", "line2": "2 66956  86.4971 344.0126 0007676 176.3616 183.7600 13.67770338  1332"}}, "geometry": {"type": "Point", "coordinates": [154.48298771160864, 68.36321497943173]}}, {"type": "Feature", "properties": {"norad_id": 66957, "name": "HULIANWANG DIGUI-118", "group": "last-30-days", "lat": 63.62319500276693, "lon": 156.26578726473988, "alt_km": 997.9445343388497, "timestamp": "2025-12-20T09:36:00.354987+00:00", "meta": {"OBJECT_NAME": "HULIANWANG DIGUI-118", "OBJECT_ID": "2025-287E", "EPOCH": "2025-12-19T17:14:01.622976", "MEAN_MOTION": 13.67870424, "ECCENTRICITY": 0.00073636, "INCLINATION": 86.4967, "RA_OF_ASC_NODE": 343.6097, "ARG_OF_PERICENTER": 172.7883, "MEAN_ANOMALY": 187.3383, "EPHEMERIS_TYPE": 0, "CLASSIFICATION_TYPE": "U", "NORAD_CAT_ID": 66957, "ELEMENT_SET_NO": 999, "REV_AT_EPOCH": 148, "BSTAR": 0.00013028429, "MEAN_MOTION_DOT": 1.27e-06, "MEAN_MOTION_DDOT": 0}, "tle": {"line1": "1 66957U 25287E   25353.71807434  .00000127  00000+0  13028-3 0  9995", "line2": "2 66957  86.4967 343.6097 0007363 172.7883 187.3383 13.67870424  1480"}}, "geometry": {"type": "Point", "coordinates": [156.26578726473988, 63.62319500276693]}}]}